AMC-3                   
1 24936U 97050A   26065.49594309 -.00000264  00000+0  00000+0 0  9998
2 24936   7.8940  65.2484 0003464 292.1608 273.3413  1.00272683 51400
NSS-11                  
1 26554U 00059A   26066.11564884  .00000023  00000+0  00000+0 0  9996
2 26554   1.8627  82.6381 0003180 273.3472  26.4708  1.00272976 40269
AMC-6                   
1 26580U 00067A   26066.14628090  .00000086  00000+0  00000+0 0  9996
2 26580   0.0477 326.5114 0003093  23.5042  92.4356  1.00273163 92861
AMC-11                  
1 28252U 04017A   26066.13516814 -.00000052  00000+0  00000+0 0  9996
2 28252   0.0482  79.1275 0003234 276.4315 106.8437  1.00272906 79840
AMC-15                  
1 28446U 04041A   26066.12961598 -.00000091  00000+0  00000+0 0  9993
2 28446   0.0496 302.3337 0002516  30.2820 133.8229  1.00272447 78285
NSS-10                  
1 28526U 05003A   26065.93070134 -.00000253  00000+0  00000+0 0  9996
2 28526   6.1937  71.6889 0003232 270.2097 120.3507  1.00272074 52139
ASTRA 1KR               
1 29055U 06012A   26066.01320838  .00000116  00000+0  00000+0 0  9991
2 29055   0.2102  81.8805 0003362 254.8070 211.7676  1.00270705 44671
ASTRA 1L                
1 31306U 07016A   26066.12303693 -.00000186  00000+0  00000+0 0  9998
2 31306   1.0575  82.4006 0003415 282.1523 180.1090  1.00271060 43967
ASTRA 4A                
1 32299U 07057A   26066.07336435  .00000030  00000+0  00000+0 0  9996
2 32299   0.0479 297.4907 0002424  53.2433 205.2579  1.00271294 50626
ASTRA 1M                
1 33436U 08057A   26066.01329503  .00000117  00000+0  00000+0 0  9999
2 33436   0.0402  63.1861 0000915 357.6348 127.8724  1.00270002 44712
NSS-9                   
1 33749U 09008A   26066.11703552  .00000070  00000+0  00000+0 0  9992
2 33749   0.9975  83.6747 0002115 261.9030  44.4578  1.00274226 62490
SES-7 (PROTOSTAR 2)     
1 34941U 09027A   26065.95392097 -.00000348  00000+0  00000+0 0  9996
2 34941   0.0156  87.2109 0001353 225.5929 303.5179  1.00270537 61604
NSS-12                  
1 36032U 09058A   26065.34558611  .00000067  00000+0  00000+0 0  9999
2 36032   0.0029 267.1484 0004908  63.9853  14.3354  1.00273352 59887
SES-1                   
1 36516U 10016A   26066.12961598 -.00000117  00000+0  00000+0 0  9998
2 36516   0.0473 297.8596 0002470  43.9931 128.6475  1.00272603 58013
ASTRA 3B                
1 36581U 10021A   26066.01407503  .00000135  00000+0  00000+0 0  9994
2 36581   1.2042  84.8861 0003137 282.5448 185.8546  1.00272927 57847
SES-3                   
1 37748U 11035A   26066.12961598 -.00000104  00000+0  00000+0 0  9994
2 37748   1.0626  84.2715 0003588 270.9859 113.2350  1.00272407 53575
ASTRA 1N                
1 37775U 11041A   26065.79935673  .00000116  00000+0  00000+0 0  9990
2 37775   0.0709  25.3305 0004333 353.1319  93.0076  1.00269956 43508
