[{"OBJECT_NAME":"AMC-3","OBJECT_ID":"1997-050A","EPOCH":"2026-03-06T11:54:09.482976","MEAN_MOTION":1.00272683,"ECCENTRICITY":0.00034643,"INCLINATION":7.894,"RA_OF_ASC_NODE":65.2484,"ARG_OF_PERICENTER":292.1608,"MEAN_ANOMALY":273.3413,"EPHEMERIS_TYPE":0,"CLASSIFICATION_TYPE":"U","NORAD_CAT_ID":24936,"ELEMENT_SET_NO":999,"REV_AT_EPOCH":5140,"BSTAR":0,"MEAN_MOTION_DOT":-2.64e-6,"MEAN_MOTION_DDOT":0},{"OBJECT_NAME":"NSS-11","OBJECT_ID":"2000-059A","EPOCH":"2026-03-07T02:46:32.059776","MEAN_MOTION":1.00272976,"ECCENTRICITY":0.000318,"INCLINATION":1.8627,"RA_OF_ASC_NODE":82.6381,"ARG_OF_PERICENTER":273.3472,"MEAN_ANOMALY":26.4708,"EPHEMERIS_TYPE":0,"CLASSIFICATION_TYPE":"U","NORAD_CAT_ID":26554,"ELEMENT_SET_NO":999,"REV_AT_EPOCH":4026,"BSTAR":0,"MEAN_MOTION_DOT":2.3e-7,"MEAN_MOTION_DDOT":0},{"OBJECT_NAME":"AMC-6","OBJECT_ID":"2000-067A","EPOCH":"2026-03-07T03:30:38.669760","MEAN_MOTION":1.00273163,"ECCENTRICITY":0.0003093,"INCLINATION":0.0477,"RA_OF_ASC_NODE":326.5114,"ARG_OF_PERICENTER":23.5042,"MEAN_ANOMALY":92.4356,"EPHEMERIS_TYPE":0,"CLASSIFICATION_TYPE":"U","NORAD_CAT_ID":26580,"ELEMENT_SET_NO":999,"REV_AT_EPOCH":9286,"BSTAR":0,"MEAN_MOTION_DOT":8.6e-7,"MEAN_MOTION_DDOT":0},{"OBJECT_NAME":"AMC-11","OBJECT_ID":"2004-017A","EPOCH":"2026-03-07T03:14:38.527296","MEAN_MOTION":1.00272906,"ECCENTRICITY":0.0003234,"INCLINATION":0.0482,"RA_OF_ASC_NODE":79.1275,"ARG_OF_PERICENTER":276.4315,"MEAN_ANOMALY":106.8437,"EPHEMERIS_TYPE":0,"CLASSIFICATION_TYPE":"U","NORAD_CAT_ID":28252,"ELEMENT_SET_NO":999,"REV_AT_EPOCH":7984,"BSTAR":0,"MEAN_MOTION_DOT":-5.2e-7,"MEAN_MOTION_DDOT":0},{"OBJECT_NAME":"AMC-15","OBJECT_ID":"2004-041A","EPOCH":"2026-03-07T03:06:38.820672","MEAN_MOTION":1.00272447,"ECCENTRICITY":0.0002516,"INCLINATION":0.0496,"RA_OF_ASC_NODE":302.3337,"ARG_OF_PERICENTER":30.282,"MEAN_ANOMALY":133.8229,"EPHEMERIS_TYPE":0,"CLASSIFICATION_TYPE":"U","NORAD_CAT_ID":28446,"ELEMENT_SET_NO":999,"REV_AT_EPOCH":7828,"BSTAR":0,"MEAN_MOTION_DOT":-9.1e-7,"MEAN_MOTION_DDOT":0},{"OBJECT_NAME":"NSS-10","OBJECT_ID":"2005-003A","EPOCH":"2026-03-06T22:20:12.595776","MEAN_MOTION":1.00272074,"ECCENTRICITY":0.0003232,"INCLINATION":6.1937,"RA_OF_ASC_NODE":71.6889,"ARG_OF_PERICENTER":270.2097,"MEAN_ANOMALY":120.3507,"EPHEMERIS_TYPE":0,"CLASSIFICATION_TYPE":"U","NORAD_CAT_ID":28526,"ELEMENT_SET_NO":999,"REV_AT_EPOCH":5213,"BSTAR":0,"MEAN_MOTION_DOT":-2.53e-6,"MEAN_MOTION_DDOT":0},{"OBJECT_NAME":"ASTRA 1KR","OBJECT_ID":"2006-012A","EPOCH":"2026-03-07T00:19:01.204032","MEAN_MOTION":1.00270705,"ECCENTRICITY":0.0003362,"INCLINATION":0.2102,"RA_OF_ASC_NODE":81.8805,"ARG_OF_PERICENTER":254.807,"MEAN_ANOMALY":211.7676,"EPHEMERIS_TYPE":0,"CLASSIFICATION_TYPE":"U","NORAD_CAT_ID":29055,"ELEMENT_SET_NO":999,"REV_AT_EPOCH":4467,"BSTAR":0,"MEAN_MOTION_DOT":1.16e-6,"MEAN_MOTION_DDOT":0},{"OBJECT_NAME":"ASTRA 1L","OBJECT_ID":"2007-016A","EPOCH":"2026-03-07T02:57:10.390752","MEAN_MOTION":1.0027106,"ECCENTRICITY":0.0003415,"INCLINATION":1.0575,"RA_OF_ASC_NODE":82.4006,"ARG_OF_PERICENTER":282.1523,"MEAN_ANOMALY":180.109,"EPHEMERIS_TYPE":0,"CLASSIFICATION_TYPE":"U","NORAD_CAT_ID":31306,"ELEMENT_SET_NO":999,"REV_AT_EPOCH":4396,"BSTAR":0,"MEAN_MOTION_DOT":-1.86e-6,"MEAN_MOTION_DDOT":0},{"OBJECT_NAME":"ASTRA 4A","OBJECT_ID":"2007-057A","EPOCH":"2026-03-07T01:45:38.679840","MEAN_MOTION":1.00271294,"ECCENTRICITY":0.0002424,"INCLINATION":0.0479,"RA_OF_ASC_NODE":297.4907,"ARG_OF_PERICENTER":53.2433,"MEAN_ANOMALY":205.2579,"EPHEMERIS_TYPE":0,"CLASSIFICATION_TYPE":"U","NORAD_CAT_ID":32299,"ELEMENT_SET_NO":999,"REV_AT_EPOCH":5062,"BSTAR":0,"MEAN_MOTION_DOT":3.0e-7,"MEAN_MOTION_DDOT":0},{"OBJECT_NAME":"ASTRA 1M","OBJECT_ID":"2008-057A","EPOCH":"2026-03-07T00:19:08.690592","MEAN_MOTION":1.00270002,"ECCENTRICITY":9.15e-5,"INCLINATION":0.0402,"RA_OF_ASC_NODE":63.1861,"ARG_OF_PERICENTER":357.6348,"MEAN_ANOMALY":127.8724,"EPHEMERIS_TYPE":0,"CLASSIFICATION_TYPE":"U","NORAD_CAT_ID":33436,"ELEMENT_SET_NO":999,"REV_AT_EPOCH":4471,"BSTAR":0,"MEAN_MOTION_DOT":1.17e-6,"MEAN_MOTION_DDOT":0},{"OBJECT_NAME":"NSS-9","OBJECT_ID":"2009-008A","EPOCH":"2026-03-07T02:48:31.868928","MEAN_MOTION":1.00274226,"ECCENTRICITY":0.0002115,"INCLINATION":0.9975,"RA_OF_ASC_NODE":83.6747,"ARG_OF_PERICENTER":261.903,"MEAN_ANOMALY":44.4578,"EPHEMERIS_TYPE":0,"CLASSIFICATION_TYPE":"U","NORAD_CAT_ID":33749,"ELEMENT_SET_NO":999,"REV_AT_EPOCH":6249,"BSTAR":0,"MEAN_MOTION_DOT":7.0e-7,"MEAN_MOTION_DDOT":0},{"OBJECT_NAME":"SES-7 (PROTOSTAR 2)","OBJECT_ID":"2009-027A","EPOCH":"2026-03-06T22:53:38.771808","MEAN_MOTION":1.00270537,"ECCENTRICITY":0.0001353,"INCLINATION":0.0156,"RA_OF_ASC_NODE":87.2109,"ARG_OF_PERICENTER":225.5929,"MEAN_ANOMALY":303.5179,"EPHEMERIS_TYPE":0,"CLASSIFICATION_TYPE":"U","NORAD_CAT_ID":34941,"ELEMENT_SET_NO":999,"REV_AT_EPOCH":6160,"BSTAR":0,"MEAN_MOTION_DOT":-3.48e-6,"MEAN_MOTION_DDOT":0},{"OBJECT_NAME":"NSS-12","OBJECT_ID":"2009-058A","EPOCH":"2026-03-06T08:17:38.639904","MEAN_MOTION":1.00273352,"ECCENTRICITY":0.0004908,"INCLINATION":0.0029,"RA_OF_ASC_NODE":267.1484,"ARG_OF_PERICENTER":63.9853,"MEAN_ANOMALY":14.3354,"EPHEMERIS_TYPE":0,"CLASSIFICATION_TYPE":"U","NORAD_CAT_ID":36032,"ELEMENT_SET_NO":999,"REV_AT_EPOCH":5988,"BSTAR":0,"MEAN_MOTION_DOT":6.7e-7,"MEAN_MOTION_DDOT":0},{"OBJECT_NAME":"SES-1","OBJECT_ID":"2010-016A","EPOCH":"2026-03-07T03:06:38.820672","MEAN_MOTION":1.00272603,"ECCENTRICITY":0.000247,"INCLINATION":0.0473,"RA_OF_ASC_NODE":297.8596,"ARG_OF_PERICENTER":43.9931,"MEAN_ANOMALY":128.6475,"EPHEMERIS_TYPE":0,"CLASSIFICATION_TYPE":"U","NORAD_CAT_ID":36516,"ELEMENT_SET_NO":999,"REV_AT_EPOCH":5801,"BSTAR":0,"MEAN_MOTION_DOT":-1.17e-6,"MEAN_MOTION_DDOT":0},{"OBJECT_NAME":"ASTRA 3B","OBJECT_ID":"2010-021A","EPOCH":"2026-03-07T00:20:16.082592","MEAN_MOTION":1.00272927,"ECCENTRICITY":0.0003137,"INCLINATION":1.2042,"RA_OF_ASC_NODE":84.8861,"ARG_OF_PERICENTER":282.5448,"MEAN_ANOMALY":185.8546,"EPHEMERIS_TYPE":0,"CLASSIFICATION_TYPE":"U","NORAD_CAT_ID":36581,"ELEMENT_SET_NO":999,"REV_AT_EPOCH":5784,"BSTAR":0,"MEAN_MOTION_DOT":1.35e-6,"MEAN_MOTION_DDOT":0},{"OBJECT_NAME":"SES-3","OBJECT_ID":"2011-035A","EPOCH":"2026-03-07T03:06:38.820672","MEAN_MOTION":1.00272407,"ECCENTRICITY":0.0003588,"INCLINATION":1.0626,"RA_OF_ASC_NODE":84.2715,"ARG_OF_PERICENTER":270.9859,"MEAN_ANOMALY":113.235,"EPHEMERIS_TYPE":0,"CLASSIFICATION_TYPE":"U","NORAD_CAT_ID":37748,"ELEMENT_SET_NO":999,"REV_AT_EPOCH":5357,"BSTAR":0,"MEAN_MOTION_DOT":-1.04e-6,"MEAN_MOTION_DDOT":0},{"OBJECT_NAME":"ASTRA 1N","OBJECT_ID":"2011-041A","EPOCH":"2026-03-06T19:11:04.421472","MEAN_MOTION":1.00269956,"ECCENTRICITY":0.0004333,"INCLINATION":0.0709,"RA_OF_ASC_NODE":25.3305,"ARG_OF_PERICENTER":353.1319,"MEAN_ANOMALY":93.0076,"EPHEMERIS_TYPE":0,"CLASSIFICATION_TYPE":"U","NORAD_CAT_ID":37775,"ELEMENT_SET_NO":999,"REV_AT_EPOCH":4350,"BSTAR":0,"MEAN_MOTION_DOT":1.16e-6,"MEAN_MOTION_DDOT":0}]
